{"type": "FeatureCollection", "features": [ {"type": "Feature", "properties": {"norad_id": 30146, "name": "FENGYUN 1C DEB", "group": "fengyun-1c-debris", "lat": 74.154091083405, "lon": 129.1289616832453, "alt_km": 803.3669386564807, "timestamp": "2025-12-27T08:36:18.656664+00:00", "meta": {"OBJECT_NAME": "FENGYUN 1C DEB", "OBJECT_ID": "1999-025TB", "EPOCH": "2025-12-27T00:08:39.594048", "MEAN_MOTION": 13.86621457, "ECCENTRICITY": 0.0178617, "INCLINATION": 98.0204, "RA_OF_ASC_NODE": 158.6104, "ARG_OF_PERICENTER": 83.3847, "MEAN_ANOMALY": 34.3262, "EPHEMERIS_TYPE": 0, "CLASSIFICATION_TYPE": "U", "NORAD_CAT_ID": 30146, "ELEMENT_SET_NO": 999, "REV_AT_EPOCH": 95615, "BSTAR": 0.00060466, "MEAN_MOTION_DOT": 7.64e-06, "MEAN_MOTION_DDOT": 0}, "tle": {"line1": "1 30146U 99025TB  25361.00601382  .00000764  00000+0  60466-3 0  9997", "line2": "2 30146  98.0204 158.6104 0178617  83.3847  34.3262 13.86621457956156"}}, "geometry": {"type": "Point", "coordinates": [129.1289616832453, 74.154091083405]}}, {"type": "Feature", "properties": {"norad_id": 30148, "name": "FENGYUN 1C DEB", "group": "fengyun-1c-debris", "lat": -23.91716519746173, "lon": -33.27175575061715, "alt_km": 870.279227525546, "timestamp": "2025-12-27T08:36:18.656674+00:00", "meta": {"OBJECT_NAME": "FENGYUN 1C DEB", "OBJECT_ID": "1999-025TD", "EPOCH": "2025-12-26T09:17:09.932064", "MEAN_MOTION": 13.88516213, "ECCENTRICITY": 0.0134984, "INCLINATION": 99.5456, "RA_OF_ASC_NODE": 150.0138, "ARG_OF_PERICENTER": 160.4848, "MEAN_ANOMALY": 228.3147, "EPHEMERIS_TYPE": 0, "CLASSIFICATION_TYPE": "U", "NORAD_CAT_ID": 30148, "ELEMENT_SET_NO": 999, "REV_AT_EPOCH": 95706, "BSTAR": 0.00081465, "MEAN_MOTION_DOT": 1.006e-05, "MEAN_MOTION_DDOT": 0}, "tle": {"line1": "1 30148U 99025TD  25360.38692051  .00001006  00000+0  81465-3 0  9994", "line2": "2 30148  99.5456 150.0138 0134984 160.4848 228.3147 13.88516213957066"}}, "geometry": {"type": "Point", "coordinates": [-33.27175575061715, -23.91716519746173]}}, {"type": "Feature", "properties": {"norad_id": 30150, "name": "FENGYUN 1C DEB", "group": "fengyun-1c-debris", "lat": -56.92347017605002, "lon": -57.280438536971346, "alt_km": 890.2601103641446, "timestamp": "2025-12-27T08:36:18.656684+00:00", "meta": {"OBJECT_NAME": "FENGYUN 1C DEB", "OBJECT_ID": "1999-025TF", "EPOCH": "2025-12-27T03:07:35.620032", "MEAN_MOTION": 13.86612957, "ECCENTRICITY": 0.0146454, "INCLINATION": 98.9951, "RA_OF_ASC_NODE": 136.5752, "ARG_OF_PERICENTER": 296.9985, "MEAN_ANOMALY": 243.5008, "EPHEMERIS_TYPE": 0, "CLASSIFICATION_TYPE": "U", "NORAD_CAT_ID": 30150, "ELEMENT_SET_NO": 999, "REV_AT_EPOCH": 95657, "BSTAR": 0.00060771, "MEAN_MOTION_DOT": 7.25e-06, "MEAN_MOTION_DDOT": 0}, "tle": {"line1": "1 30150U 99025TF  25361.13027338  .00000725  00000+0  60771-3 0  9995", "line2": "2 30150  98.9951 136.5752 0146454 296.9985 243.5008 13.86612957956575"}}, "geometry": {"type": "Point", "coordinates": [-57.280438536971346, -56.92347017605002]}}, {"type": "Feature", "properties": {"norad_id": 30151, "name": "FENGYUN 1C DEB", "group": "fengyun-1c-debris", "lat": -66.81588252307796, "lon": 30.712465036718346, "alt_km": 880.5228755801827, "timestamp": "2025-12-27T08:36:18.656695+00:00", "meta": {"OBJECT_NAME": "FENGYUN 1C DEB", "OBJECT_ID": "1999-025TG", "EPOCH": "2025-12-27T00:36:18.842976", "MEAN_MOTION": 13.84491377, "ECCENTRICITY": 0.0163285, "INCLINATION": 99.0629, "RA_OF_ASC_NODE": 8.5097, "ARG_OF_PERICENTER": 240.2526, "MEAN_ANOMALY": 189.2724, "EPHEMERIS_TYPE": 0, "CLASSIFICATION_TYPE": "U", "NORAD_CAT_ID": 30151, "ELEMENT_SET_NO": 999, "REV_AT_EPOCH": 95443, "BSTAR": 0.00054984, "MEAN_MOTION_DOT": 6.4e-06, "MEAN_MOTION_DDOT": 0}, "tle": {"line1": "1 30151U 99025TG  25361.02521809  .00000640  00000+0  54984-3 0  9991", "line2": "2 30151  99.0629   8.5097 0163285 240.2526 189.2724 13.84491377954437"}}, "geometry": {"type": "Point", "coordinates": [30.712465036718346, -66.81588252307796]}}, {"type": "Feature", "properties": {"norad_id": 30152, "name": "FENGYUN 1C DEB", "group": "fengyun-1c-debris", "lat": -24.804483498404124, "lon": -136.83183695870375, "alt_km": 868.7860517541385, "timestamp": "2025-12-27T08:36:18.656705+00:00", "meta": {"OBJECT_NAME": "FENGYUN 1C DEB", "OBJECT_ID": "1999-025TH", "EPOCH": "2025-12-27T01:50:47.812128", "MEAN_MOTION": 13.96787547, "ECCENTRICITY": 0.0162562, "INCLINATION": 99.0806, "RA_OF_ASC_NODE": 218.6514, "ARG_OF_PERICENTER": 46.0343, "MEAN_ANOMALY": 315.4096, "EPHEMERIS_TYPE": 0, "CLASSIFICATION_TYPE": "U", "NORAD_CAT_ID": 30152, "ELEMENT_SET_NO": 999, "REV_AT_EPOCH": 95578, "BSTAR": 0.0023496, "MEAN_MOTION_DOT": 3.607e-05, "MEAN_MOTION_DDOT": 0}, "tle": {"line1": "1 30152U 99025TH  25361.07694227  .00003607  00000+0  23496-2 0  9991", "line2": "2 30152  99.0806 218.6514 0162562  46.0343 315.4096 13.96787547955783"}}, "geometry": {"type": "Point", "coordinates": [-136.83183695870375, -24.804483498404124]}}, {"type": "Feature", "properties": {"norad_id": 30153, "name": "FENGYUN 1C DEB", "group": "fengyun-1c-debris", "lat": 65.42088833560744, "lon": -162.90664770696168, "alt_km": 1079.3796446785955, "timestamp": "2025-12-27T08:36:18.656715+00:00", "meta": {"OBJECT_NAME": "FENGYUN 1C DEB", "OBJECT_ID": "1999-025TJ", "EPOCH": "2025-12-26T21:53:38.990112", "MEAN_MOTION": 13.78811165, "ECCENTRICITY": 0.0200369, "INCLINATION": 100.4679, "RA_OF_ASC_NODE": 352.7608, "ARG_OF_PERICENTER": 329.6525, "MEAN_ANOMALY": 87.159, "EPHEMERIS_TYPE": 0, "CLASSIFICATION_TYPE": "U", "NORAD_CAT_ID": 30153, "ELEMENT_SET_NO": 999, "REV_AT_EPOCH": 94970, "BSTAR": 0.0014013, "MEAN_MOTION_DOT": 1.603e-05, "MEAN_MOTION_DDOT": 0}, "tle": {"line1": "1 30153U 99025TJ  25360.91225683  .00001603  00000+0  14013-2 0  9999", "line2": "2 30153 100.4679 352.7608 0200369 329.6525  87.1590 13.78811165949704"}}, "geometry": {"type": "Point", "coordinates": [-162.90664770696168, 65.42088833560744]}}, {"type": "Feature", "properties": {"norad_id": 30154, "name": "FENGYUN 1C DEB", "group": "fengyun-1c-debris", "lat": 16.268330873957265, "lon": 39.24408926147436, "alt_km": 1048.2780450436285, "timestamp": "2025-12-27T08:36:18.656725+00:00", "meta": {"OBJECT_NAME": "FENGYUN 1C DEB", "OBJECT_ID": "1999-025TK", "EPOCH": "2025-12-27T01:44:19.812192", "MEAN_MOTION": 13.86043313, "ECCENTRICITY": 0.0182921, "INCLINATION": 98.4491, "RA_OF_ASC_NODE": 41.4717, "ARG_OF_PERICENTER": 159.755, "MEAN_ANOMALY": 231.3235, "EPHEMERIS_TYPE": 0, "CLASSIFICATION_TYPE": "U", "NORAD_CAT_ID": 30154, "ELEMENT_SET_NO": 999, "REV_AT_EPOCH": 95183, "BSTAR": 0.0015512, "MEAN_MOTION_DOT": 1.999e-05, "MEAN_MOTION_DDOT": 0}, "tle": {"line1": "1 30154U 99025TK  25361.07245153  .00001999  00000+0  15512-2 0  9995", "line2": "2 30154  98.4491  41.4717 0182921 159.7550 231.3235 13.86043313951836"}}, "geometry": {"type": "Point", "coordinates": [39.24408926147436, 16.268330873957265]}}, {"type": "Feature", "properties": {"norad_id": 30155, "name": "FENGYUN 1C DEB", "group": "fengyun-1c-debris", "lat": -40.96846113621711, "lon": 83.7713398809293, "alt_km": 817.386228002194, "timestamp": "2025-12-27T08:36:18.656735+00:00", "meta": {"OBJECT_NAME": "FENGYUN 1C DEB", "OBJECT_ID": "1999-025TL", "EPOCH": "2025-12-26T20:33:55.137024", "MEAN_MOTION": 13.73863521, "ECCENTRICITY": 0.0242924, "INCLINATION": 99.7513, "RA_OF_ASC_NODE": 74.6722, "ARG_OF_PERICENTER": 307.0428, "MEAN_ANOMALY": 50.8721, "EPHEMERIS_TYPE": 0, "CLASSIFICATION_TYPE": "U", "NORAD_CAT_ID": 30155, "ELEMENT_SET_NO": 999, "REV_AT_EPOCH": 94058, "BSTAR": 0.0021976, "MEAN_MOTION_DOT": 2.499e-05, "MEAN_MOTION_DDOT": 0}, "tle": {"line1": "1 30155U 99025TL  25360.85688816  .00002499  00000+0  21976-2 0  9995", "line2": "2 30155  99.7513  74.6722 0242924 307.0428  50.8721 13.73863521940583"}}, "geometry": {"type": "Point", "coordinates": [83.7713398809293, -40.96846113621711]}}, {"type": "Feature", "properties": {"norad_id": 30156, "name": "FENGYUN 1C DEB", "group": "fengyun-1c-debris", "lat": -37.99151079750598, "lon": 140.50589498279308, "alt_km": 822.0667803656552, "timestamp": "2025-12-27T08:36:18.656745+00:00", "meta": {"OBJECT_NAME": "FENGYUN 1C DEB", "OBJECT_ID": "1999-025TM", "EPOCH": "2025-12-27T04:10:40.809216", "MEAN_MOTION": 13.80853546, "ECCENTRICITY": 0.0198432, "INCLINATION": 98.9193, "RA_OF_ASC_NODE": 327.3769, "ARG_OF_PERICENTER": 223.9563, "MEAN_ANOMALY": 158.1865, "EPHEMERIS_TYPE": 0, "CLASSIFICATION_TYPE": "U", "NORAD_CAT_ID": 30156, "ELEMENT_SET_NO": 999, "REV_AT_EPOCH": 94890, "BSTAR": 0.0012319, "MEAN_MOTION_DOT": 1.464e-05, "MEAN_MOTION_DDOT": 0}, "tle": {"line1": "1 30156U 99025TM  25361.17408344  .00001464  00000+0  12319-2 0  9990", "line2": "2 30156  98.9193 327.3769 0198432 223.9563 158.1865 13.80853546948907"}}, "geometry": {"type": "Point", "coordinates": [140.50589498279308, -37.99151079750598]}}, {"type": "Feature", "properties": {"norad_id": 30157, "name": "FENGYUN 1C DEB", "group": "fengyun-1c-debris", "lat": -77.52181043603649, "lon": 142.65103090422335, "alt_km": 764.5868687469756, "timestamp": "2025-12-27T08:36:18.656755+00:00", "meta": {"OBJECT_NAME": "FENGYUN 1C DEB", "OBJECT_ID": "1999-025TN", "EPOCH": "2025-12-24T06:30:03.653568", "MEAN_MOTION": 14.45252792, "ECCENTRICITY": 0.00369606, "INCLINATION": 98.7145, "RA_OF_ASC_NODE": 95.607, "ARG_OF_PERICENTER": 159.967, "MEAN_ANOMALY": 262.7951, "EPHEMERIS_TYPE": 0, "CLASSIFICATION_TYPE": "U", "NORAD_CAT_ID": 30157, "ELEMENT_SET_NO": 999, "REV_AT_EPOCH": 98239, "BSTAR": 0.0021716886, "MEAN_MOTION_DOT": 7.642e-05, "MEAN_MOTION_DDOT": 0}, "tle": {"line1": "1 30157U 99025TN  25358.27087562  .00007642  00000+0  21717-2 0  9999", "line2": "2 30157  98.7145  95.6070 0036960 159.9670 262.7951 14.45252792982394"}}, "geometry": {"type": "Point", "coordinates": [142.65103090422335, -77.52181043603649]}}]}